{
"type": "FeatureCollection",
"name": "pedestrian_zones",
"crs": { "type": "name", "properties": { "name": "urn:ogc:def:crs:OGC:1.3:CRS84" } },
"features": [
{ "type": "Feature", "properties": { "zone_id": 0, "node_count": 228 }, "geometry": { "type": "Polygon", "coordinates": [ [ [ 127.3624131, 36.3608911 ], [ 127.3620717, 36.3609193 ], [ 127.3623686, 36.361147 ], [ 127.3730125, 36.3682445 ], [ 127.3731331, 36.3681507 ], [ 127.3732254, 36.3665822 ], [ 127.3732268, 36.366246 ], [ 127.3732115, 36.3654596 ], [ 127.3729642, 36.3610793 ], [ 127.3727317, 36.3609093 ], [ 127.3624131, 36.3608911 ] ] ] } },
{ "type": "Feature", "properties": { "zone_id": 1, "node_count": 22 }, "geometry": { "type": "Polygon", "coordinates": [ [ [ 127.3548214, 36.3609057 ], [ 127.3557238, 36.3622218 ], [ 127.3562952, 36.362474 ], [ 127.356553, 36.3625622 ], [ 127.3571499, 36.362466 ], [ 127.3571836, 36.3620069 ], [ 127.3569477, 36.3616577 ], [ 127.3566691, 36.3615371 ], [ 127.3564753, 36.3614533 ], [ 127.355912, 36.3612489 ], [ 127.3548214, 36.3609057 ] ] ] } },
{ "type": "Feature", "properties": { "zone_id": 2, "node_count": 70 }, "geometry": { "type": "Polygon", "coordinates": [ [ [ 127.3577982, 36.3620615 ], [ 127.3599081, 36.3633841 ], [ 127.3668344, 36.3670457 ], [ 127.367341, 36.3671839 ], [ 127.3674409, 36.3671631 ], [ 127.3596263, 36.3625493 ], [ 127.3588709, 36.3623207 ], [ 127.3577982, 36.3620615 ] ] ] } },
{ "type": "Feature", "properties": { "zone_id": 3, "node_count": 1421 }, "geometry": { "type": "Polygon", "coordinates": [ [ [ 127.3619249, 36.3609882 ], [ 127.3516563, 36.3718362 ], [ 127.3516393, 36.3718635 ], [ 127.3516283, 36.371897 ], [ 127.351624, 36.3719524 ], [ 127.3516002, 36.3732815 ], [ 127.351803, 36.3753094 ], [ 127.3535991, 36.3774584 ], [ 127.3571036, 36.3788322 ], [ 127.3576239, 36.3788684 ], [ 127.3732974, 36.3774622 ], [ 127.3735001, 36.374846 ], [ 127.3735146, 36.3739687 ], [ 127.3735329, 36.3721072 ], [ 127.3733807, 36.3688619 ], [ 127.3733752, 36.3688057 ], [ 127.3733513, 36.3687555 ], [ 127.3730861, 36.3684149 ], [ 127.3712321, 36.3668019 ], [ 127.37071, 36.366355 ], [ 127.3705966, 36.3662666 ], [ 127.3691998, 36.3652068 ], [ 127.3688553, 36.3649569 ], [ 127.368517, 36.3647146 ], [ 127.3680245, 36.3643942 ], [ 127.3678409, 36.3642759 ], [ 127.3666825, 36.3635722 ], [ 127.3620593, 36.3609949 ], [ 127.3619249, 36.3609882 ] ] ] } },
{ "type": "Feature", "properties": { "zone_id": 4, "node_count": 159 }, "geometry": { "type": "Polygon", "coordinates": [ [ [ 127.3587533, 36.3609098 ], [ 127.3583124, 36.3609374 ], [ 127.3580742, 36.3609647 ], [ 127.3577955, 36.3610586 ], [ 127.3608206, 36.3625374 ], [ 127.3608689, 36.3625527 ], [ 127.3609534, 36.3625504 ], [ 127.3610525, 36.3625426 ], [ 127.3611574, 36.3625074 ], [ 127.3612312, 36.3624542 ], [ 127.3612934, 36.3623791 ], [ 127.3613225, 36.3622962 ], [ 127.361305, 36.3622054 ], [ 127.3612535, 36.362121 ], [ 127.360998, 36.3618719 ], [ 127.3606511, 36.3615937 ], [ 127.3595384, 36.3609646 ], [ 127.3594767, 36.3609457 ], [ 127.3594167, 36.3609287 ], [ 127.3593315, 36.3609104 ], [ 127.3587533, 36.3609098 ] ] ] } },
{ "type": "Feature", "properties": { "zone_id": 5, "node_count": 8 }, "geometry": { "type": "Polygon", "coordinates": [ [ [ 127.3604556, 36.3629088 ], [ 127.3617607, 36.3639499 ], [ 127.3620227, 36.363623 ], [ 127.3605785, 36.3629432 ], [ 127.3604556, 36.3629088 ] ] ] } },
{ "type": "Feature", "properties": { "zone_id": 6, "node_count": 143 }, "geometry": { "type": "Polygon", "coordinates": [ [ [ 127.3690863, 36.3757536 ], [ 127.3675336, 36.3757992 ], [ 127.3664789, 36.3758724 ], [ 127.3643894, 36.3762658 ], [ 127.3635791, 36.3764194 ], [ 127.3631718, 36.3765172 ], [ 127.3628366, 36.3766104 ], [ 127.3626029, 36.3766925 ], [ 127.3623803, 36.3767816 ], [ 127.3622911, 36.3768182 ], [ 127.3621203, 36.3769018 ], [ 127.3616485, 36.3771556 ], [ 127.3615467, 36.3772281 ], [ 127.3615485, 36.3773113 ], [ 127.3636927, 36.3782079 ], [ 127.3637757, 36.3782243 ], [ 127.3682845, 36.3787498 ], [ 127.3723518, 36.3788658 ], [ 127.3735221, 36.3788498 ], [ 127.3734689, 36.378398 ], [ 127.3733176, 36.3779564 ], [ 127.3698492, 36.3759298 ], [ 127.3696647, 36.3758448 ], [ 127.3693531, 36.3757748 ], [ 127.3690863, 36.3757536 ] ] ] } },
{ "type": "Feature", "properties": { "zone_id": 7, "node_count": 16 }, "geometry": { "type": "Polygon", "coordinates": [ [ [ 127.3641998, 36.3736248 ], [ 127.36403, 36.3744914 ], [ 127.3644994, 36.3745063 ], [ 127.3648598, 36.3744007 ], [ 127.3647331, 36.3741266 ], [ 127.3641998, 36.3736248 ] ] ] } },
{ "type": "Feature", "properties": { "zone_id": 8, "node_count": 5 }, "geometry": { "type": "Polygon", "coordinates": [ [ [ 127.3631824, 36.3706951 ], [ 127.3624989, 36.370778 ], [ 127.3625478, 36.3708292 ], [ 127.3631824, 36.3706951 ] ] ] } },
{ "type": "Feature", "properties": { "zone_id": 9, "node_count": 9 }, "geometry": { "type": "Polygon", "coordinates": [ [ [ 127.3597556, 36.369293 ], [ 127.3595574, 36.3695778 ], [ 127.3593899, 36.3699336 ], [ 127.3600568, 36.3701426 ], [ 127.3607792, 36.3698628 ], [ 127.3597556, 36.369293 ] ] ] } },
{ "type": "Feature", "properties": { "zone_id": 10, "node_count": 934 }, "geometry": { "type": "Polygon", "coordinates": [ [ [ 127.3530763, 36.361026 ], [ 127.352019, 36.3610357 ], [ 127.351584, 36.3617674 ], [ 127.3512271, 36.3648415 ], [ 127.3512155, 36.3694481 ], [ 127.3521674, 36.3708377 ], [ 127.3554436, 36.3714537 ], [ 127.3571607, 36.3716764 ], [ 127.3579223, 36.371487 ], [ 127.35924, 36.3709143 ], [ 127.3595176, 36.3707398 ], [ 127.3597955, 36.3705523 ], [ 127.3608168, 36.3697427 ], [ 127.3611173, 36.3693808 ], [ 127.3616866, 36.3686361 ], [ 127.3632958, 36.3660677 ], [ 127.3629858, 36.3655618 ], [ 127.3629161, 36.3654495 ], [ 127.3628091, 36.3653446 ], [ 127.3596815, 36.3632336 ], [ 127.3589942, 36.3628141 ], [ 127.3587601, 36.3626842 ], [ 127.3576732, 36.3621274 ], [ 127.3541662, 36.3610422 ], [ 127.3530763, 36.361026 ] ] ] } },
{ "type": "Feature", "properties": { "zone_id": 11, "node_count": 7 }, "geometry": { "type": "Polygon", "coordinates": [ [ [ 127.356885, 36.3675175 ], [ 127.356394, 36.3679818 ], [ 127.3568866, 36.3682266 ], [ 127.3570382, 36.3675831 ], [ 127.356885, 36.3675175 ] ] ] } },
{ "type": "Feature", "properties": { "zone_id": 12, "node_count": 8 }, "geometry": { "type": "Polygon", "coordinates": [ [ [ 127.3555277, 36.3692838 ], [ 127.3560983, 36.3696334 ], [ 127.3564062, 36.3696303 ], [ 127.3567681, 36.3692984 ], [ 127.3555277, 36.3692838 ] ] ] } },
{ "type": "Feature", "properties": { "zone_id": 13, "node_count": 5 }, "geometry": { "type": "Polygon", "coordinates": [ [ [ 127.3555594, 36.369848 ], [ 127.3552206, 36.3701268 ], [ 127.355556, 36.3701263 ], [ 127.3562684, 36.3701252 ], [ 127.3555594, 36.369848 ] ] ] } },
{ "type": "Feature", "properties": { "zone_id": 14, "node_count": 7 }, "geometry": { "type": "Polygon", "coordinates": [ [ [ 127.3592691, 36.3616512 ], [ 127.3592488, 36.3616672 ], [ 127.3591408, 36.3617812 ], [ 127.3587486, 36.3622235 ], [ 127.3588358, 36.3621333 ], [ 127.3592691, 36.3616512 ] ] ] } },
{ "type": "Feature", "properties": { "zone_id": 15, "node_count": 13 }, "geometry": { "type": "Polygon", "coordinates": [ [ [ 127.3559694, 36.3611263 ], [ 127.3575447, 36.3618321 ], [ 127.3576275, 36.3618568 ], [ 127.3572759, 36.3613731 ], [ 127.3559694, 36.3611263 ] ] ] } },
{ "type": "Feature", "properties": { "zone_id": 16, "node_count": 166 }, "geometry": { "type": "Polygon", "coordinates": [ [ [ 127.3635957, 36.3662915 ], [ 127.3635046, 36.3662947 ], [ 127.3627619, 36.3672088 ], [ 127.3615536, 36.3691156 ], [ 127.3615054, 36.3702504 ], [ 127.3625602, 36.370731 ], [ 127.3631255, 36.3706128 ], [ 127.3662544, 36.3698569 ], [ 127.3664145, 36.3696624 ], [ 127.3670447, 36.3687923 ], [ 127.3670834, 36.3679068 ], [ 127.365617, 36.3669797 ], [ 127.3649167, 36.3665943 ], [ 127.3648296, 36.366555 ], [ 127.3646662, 36.3664969 ], [ 127.3635957, 36.3662915 ] ] ] } },
{ "type": "Feature", "properties": { "zone_id": 17, "node_count": 5 }, "geometry": { "type": "Polygon", "coordinates": [ [ [ 127.3647687, 36.3690084 ], [ 127.3648106, 36.3691105 ], [ 127.3660752, 36.3698829 ], [ 127.3660592, 36.3697541 ], [ 127.3647687, 36.3690084 ] ] ] } },
{ "type": "Feature", "properties": { "zone_id": 18, "node_count": 27 }, "geometry": { "type": "Polygon", "coordinates": [ [ [ 127.3634578, 36.3768146 ], [ 127.3616969, 36.3778765 ], [ 127.3615268, 36.3780425 ], [ 127.3620674, 36.3780398 ], [ 127.3634817, 36.3780238 ], [ 127.3634578, 36.3768146 ] ] ] } },
{ "type": "Feature", "properties": { "zone_id": 19, "node_count": 5 }, "geometry": { "type": "Polygon", "coordinates": [ [ [ 127.3628518, 36.3609096 ], [ 127.36266, 36.3609284 ], [ 127.3627094, 36.3609426 ], [ 127.3627482, 36.3609415 ], [ 127.3628053, 36.3609312 ], [ 127.3628518, 36.3609096 ] ] ] } },
{ "type": "Feature", "properties": { "zone_id": 20, "node_count": 7 }, "geometry": { "type": "Polygon", "coordinates": [ [ [ 127.3655709, 36.3671859 ], [ 127.3655642, 36.3672539 ], [ 127.3656588, 36.3676511 ], [ 127.3661152, 36.3677751 ], [ 127.3665041, 36.3677103 ], [ 127.3655709, 36.3671859 ] ] ] } },
{ "type": "Feature", "properties": { "zone_id": 21, "node_count": 59 }, "geometry": { "type": "Polygon", "coordinates": [ [ [ 127.3608528, 36.3699325 ], [ 127.3601602, 36.3705083 ], [ 127.360447, 36.3708926 ], [ 127.3607726, 36.3712723 ], [ 127.361169, 36.3714753 ], [ 127.3612685, 36.3714761 ], [ 127.3613261, 36.3714649 ], [ 127.3613902, 36.3714327 ], [ 127.3624317, 36.3707807 ], [ 127.3610653, 36.3700462 ], [ 127.3608528, 36.3699325 ] ] ] } },
{ "type": "Feature", "properties": { "zone_id": 22, "node_count": 5 }, "geometry": { "type": "Polygon", "coordinates": [ [ [ 127.3641095, 36.3665931 ], [ 127.3646244, 36.3670357 ], [ 127.3651753, 36.3669871 ], [ 127.3648175, 36.3668022 ], [ 127.3641095, 36.3665931 ] ] ] } },
{ "type": "Feature", "properties": { "zone_id": 23, "node_count": 69 }, "geometry": { "type": "Polygon", "coordinates": [ [ [ 127.3638842, 36.3724928 ], [ 127.3635008, 36.3724958 ], [ 127.3625671, 36.3725598 ], [ 127.3624481, 36.3725682 ], [ 127.3624, 36.3725762 ], [ 127.3623572, 36.3725906 ], [ 127.3622479, 36.3726535 ], [ 127.3617969, 36.3730349 ], [ 127.3620311, 36.3732188 ], [ 127.3643637, 36.3740676 ], [ 127.3643729, 36.3736599 ], [ 127.3643573, 36.3730707 ], [ 127.3642942, 36.3727787 ], [ 127.3640679, 36.3724983 ], [ 127.3638842, 36.3724928 ] ] ] } },
{ "type": "Feature", "properties": { "zone_id": 24, "node_count": 53 }, "geometry": { "type": "Polygon", "coordinates": [ [ [ 127.3632521, 36.3707571 ], [ 127.3629701, 36.3707962 ], [ 127.3627449, 36.3708421 ], [ 127.3624138, 36.3709324 ], [ 127.3621833, 36.3710296 ], [ 127.3619096, 36.3711947 ], [ 127.3616736, 36.3713683 ], [ 127.3615239, 36.3714935 ], [ 127.3614863, 36.3715333 ], [ 127.3614716, 36.3715498 ], [ 127.3614665, 36.3715585 ], [ 127.361465, 36.3715743 ], [ 127.3614689, 36.3715908 ], [ 127.3614786, 36.3716074 ], [ 127.3614968, 36.3716246 ], [ 127.3615413, 36.3716537 ], [ 127.3615782, 36.3716778 ], [ 127.3627437, 36.372414 ], [ 127.3628027, 36.3724315 ], [ 127.3636007, 36.3724958 ], [ 127.3640701, 36.3722802 ], [ 127.3632521, 36.3707571 ] ] ] } },
{ "type": "Feature", "properties": { "zone_id": 25, "node_count": 17 }, "geometry": { "type": "Polygon", "coordinates": [ [ [ 127.3629742, 36.3735801 ], [ 127.3629373, 36.3740083 ], [ 127.363007, 36.3742575 ], [ 127.3630259, 36.3742574 ], [ 127.3637258, 36.3741786 ], [ 127.3637256, 36.3740618 ], [ 127.3637243, 36.3739142 ], [ 127.3629742, 36.3735801 ] ] ] } },
{ "type": "Feature", "properties": { "zone_id": 26, "node_count": 5 }, "geometry": { "type": "Polygon", "coordinates": [ [ [ 127.3629789, 36.3734 ], [ 127.3623171, 36.3734423 ], [ 127.3629761, 36.373483 ], [ 127.3630114, 36.3734414 ], [ 127.3629789, 36.3734 ] ] ] } },
{ "type": "Feature", "properties": { "zone_id": 27, "node_count": 9 }, "geometry": { "type": "Polygon", "coordinates": [ [ [ 127.3649928, 36.3745417 ], [ 127.3650006, 36.3745881 ], [ 127.3650345, 36.3746285 ], [ 127.3650779, 36.3746523 ], [ 127.3651374, 36.3746627 ], [ 127.3661275, 36.3746579 ], [ 127.366166, 36.3746328 ], [ 127.3661815, 36.3745935 ], [ 127.3661841, 36.3745491 ], [ 127.3649928, 36.3745417 ] ] ] } },
{ "type": "Feature", "properties": { "zone_id": 28, "node_count": 6 }, "geometry": { "type": "Polygon", "coordinates": [ [ [ 127.3639053, 36.3657676 ], [ 127.3634425, 36.3661521 ], [ 127.3627921, 36.3671073 ], [ 127.3639053, 36.3657676 ] ] ] } },
{ "type": "Feature", "properties": { "zone_id": 29, "node_count": 8 }, "geometry": { "type": "Polygon", "coordinates": [ [ [ 127.3596566, 36.3633565 ], [ 127.3634055, 36.3660482 ], [ 127.363451, 36.3660307 ], [ 127.3636868, 36.3656834 ], [ 127.3636476, 36.3655439 ], [ 127.3635769, 36.3653998 ], [ 127.3596566, 36.3633565 ] ] ] } },
{ "type": "Feature", "properties": { "zone_id": 30, "node_count": 18 }, "geometry": { "type": "Polygon", "coordinates": [ [ [ 127.3646685, 36.3691821 ], [ 127.3641578, 36.3692986 ], [ 127.363319, 36.3702987 ], [ 127.3632605, 36.370451 ], [ 127.3632342, 36.3706189 ], [ 127.3632357, 36.3706369 ], [ 127.3632543, 36.3706552 ], [ 127.3650674, 36.3711095 ], [ 127.3652117, 36.371107 ], [ 127.3653261, 36.3710269 ], [ 127.3655623, 36.3707284 ], [ 127.3659778, 36.3698448 ], [ 127.3646685, 36.3691821 ] ] ] } },
{ "type": "Feature", "properties": { "zone_id": 31, "node_count": 7 }, "geometry": { "type": "Polygon", "coordinates": [ [ [ 127.3645559, 36.3745454 ], [ 127.363903, 36.3745616 ], [ 127.364354, 36.3746502 ], [ 127.3643798, 36.3746506 ], [ 127.3645712, 36.3746503 ], [ 127.3645559, 36.3745454 ] ] ] } },
{ "type": "Feature", "properties": { "zone_id": 32, "node_count": 6 }, "geometry": { "type": "Polygon", "coordinates": [ [ [ 127.3600993, 36.3705521 ], [ 127.359879, 36.3706896 ], [ 127.3598492, 36.3707181 ], [ 127.3598418, 36.370748 ], [ 127.3598683, 36.3707844 ], [ 127.36068, 36.3712003 ], [ 127.3600993, 36.3705521 ] ] ] } },
{ "type": "Feature", "properties": { "zone_id": 33, "node_count": 5 }, "geometry": { "type": "Polygon", "coordinates": [ [ [ 127.3615259, 36.3691518 ], [ 127.3609221, 36.3698116 ], [ 127.3609351, 36.3698201 ], [ 127.3615259, 36.3691518 ] ] ] } },
{ "type": "Feature", "properties": { "zone_id": 34, "node_count": 6 }, "geometry": { "type": "Polygon", "coordinates": [ [ [ 127.3555379, 36.3693593 ], [ 127.3554282, 36.3695156 ], [ 127.3553627, 36.3696628 ], [ 127.3553139, 36.3697959 ], [ 127.3552891, 36.3699794 ], [ 127.3552907, 36.3700823 ], [ 127.3555379, 36.3693593 ] ] ] } },
{ "type": "Feature", "properties": { "zone_id": 35, "node_count": 7 }, "geometry": { "type": "Polygon", "coordinates": [ [ [ 127.3594725, 36.3709833 ], [ 127.3594132, 36.3709925 ], [ 127.3586207, 36.3713814 ], [ 127.3595069, 36.3716613 ], [ 127.3594917, 36.3710385 ], [ 127.3594725, 36.3709833 ] ] ] } },
{ "type": "Feature", "properties": { "zone_id": 36, "node_count": 13 }, "geometry": { "type": "Polygon", "coordinates": [ [ [ 127.3561079, 36.3714998 ], [ 127.355939, 36.3715 ], [ 127.3558688, 36.3715028 ], [ 127.3564901, 36.3721848 ], [ 127.3569387, 36.3718196 ], [ 127.3570203, 36.3717492 ], [ 127.3570093, 36.3717177 ], [ 127.3569739, 36.371678 ], [ 127.3569178, 36.3716358 ], [ 127.3567458, 36.3715722 ], [ 127.3566024, 36.3715388 ], [ 127.3564012, 36.3715064 ], [ 127.3561079, 36.3714998 ] ] ] } },
{ "type": "Feature", "properties": { "zone_id": 37, "node_count": 9 }, "geometry": { "type": "Polygon", "coordinates": [ [ [ 127.3583577, 36.3735662 ], [ 127.3582503, 36.3735679 ], [ 127.3574618, 36.3735959 ], [ 127.3582058, 36.3735912 ], [ 127.3586616, 36.3735813 ], [ 127.3583577, 36.3735662 ] ] ] } },
{ "type": "Feature", "properties": { "zone_id": 38, "node_count": 7 }, "geometry": { "type": "Polygon", "coordinates": [ [ [ 127.3559047, 36.3613172 ], [ 127.3565543, 36.361678 ], [ 127.3565779, 36.3616424 ], [ 127.356573, 36.3615784 ], [ 127.3565069, 36.3615265 ], [ 127.3561829, 36.3613943 ], [ 127.3559047, 36.3613172 ] ] ] } },
{ "type": "Feature", "properties": { "zone_id": 39, "node_count": 7 }, "geometry": { "type": "Polygon", "coordinates": [ [ [ 127.3567729, 36.3616679 ], [ 127.3567224, 36.3616914 ], [ 127.3574465, 36.3620335 ], [ 127.3574294, 36.3619789 ], [ 127.3569713, 36.3617279 ], [ 127.3568475, 36.3616711 ], [ 127.3567729, 36.3616679 ] ] ] } },
{ "type": "Feature", "properties": { "zone_id": 40, "node_count": 6 }, "geometry": { "type": "Polygon", "coordinates": [ [ [ 127.3613834, 36.3773222 ], [ 127.3612991, 36.3773612 ], [ 127.3610551, 36.3774995 ], [ 127.358969, 36.3787001 ], [ 127.3603497, 36.3779253 ], [ 127.3607001, 36.3777279 ], [ 127.3613834, 36.3773222 ] ] ] } }
]
}
